sat23595
1 23595U 95015E   20046.80589233  .00003212  00000-0  25188-3 0  9999
2 23595  98.6743 171.6225 0009017 252.6097 262.2162 15.01803151317260
